start=new Date('2022-03-20T00:00:00.000Z').valueOf();
sats=[{"CENTER_NAME":"EARTH","TIME_SYSTEM":"UTC","BSTAR":"0.00024145000000","OBJECT_TYPE":"PAYLOAD","FILE":"3366144","RCS_SIZE":"LARGE","PERIOD":"95.592","CLASSIFICATION_TYPE":"U","OBJECT_NAME":"STARLINK-1049","DECAY_DATE":null,"COUNTRY_CODE":"US","MEAN_MOTION_DDOT":"0.0000000000000","MEAN_ELEMENT_THEORY":"SGP4","TLE_LINE2":"2 44754  53.0548 219.6727 0001454  74.6798 285.4352 15.06407887130076","LAUNCH_DATE":"2019-11-11","MEAN_MOTION":"15.06407887","ELEMENT_SET_NO":"999","APOAPSIS":"548.196","NORAD_CAT_ID":"44754","TLE_LINE1":"1 44754U 19074AT  22078.85657745  .00003317  00000-0  24145-3 0  9994","ECCENTRICITY":"0.00014540","REF_FRAME":"TEME","SITE":"AFETR","EPHEMERIS_TYPE":"0","GP_ID":"199183093","SEMIMAJOR_AXIS":"6925.324","OBJECT_ID":"2019-074AT","RA_OF_ASC_NODE":"219.6727","INCLINATION":"53.0548","REV_AT_EPOCH":"13007","ARG_OF_PERICENTER":"74.6798","PERIAPSIS":"546.182","EPOCH":"2022-03-19T20:33:28.291680","MEAN_MOTION_DOT":"0.00003317","MEAN_ANOMALY":"285.4352"},{"ELEMENT_SET_NO":"999","APOAPSIS":"299.070","MEAN_MOTION":"15.91785987","LAUNCH_DATE":"2019-11-11","MEAN_ELEMENT_THEORY":"SGP4","TLE_LINE2":"2 44755  53.0424 229.0513 0002671 328.6238  31.4628 15.91785987130496","TLE_LINE1":"1 44755U 19074AU  22078.87070685  .00142536  18677-4  43398-3 0  9990","NORAD_CAT_ID":"44755","REF_FRAME":"TEME","ECCENTRICITY":"0.00026710","EPHEMERIS_TYPE":"0","SITE":"AFETR","TIME_SYSTEM":"UTC","CENTER_NAME":"EARTH","BSTAR":"0.00043398000000","OBJECT_TYPE":"PAYLOAD","FILE":"3366144","RCS_SIZE":"LARGE","DECAY_DATE":null,"MEAN_MOTION_DDOT":"0.0000186770000","COUNTRY_CODE":"US","CLASSIFICATION_TYPE":"U","OBJECT_NAME":"STARLINK-1050","PERIOD":"90.464","RA_OF_ASC_NODE":"229.0513","REV_AT_EPOCH":"13049","INCLINATION":"53.0424","MEAN_MOTION_DOT":"0.00142536","PERIAPSIS":"295.504","EPOCH":"2022-03-19T20:53:49.071840","ARG_OF_PERICENTER":"328.6238","MEAN_ANOMALY":"31.4628","GP_ID":"199184345","OBJECT_ID":"2019-074AU","SEMIMAJOR_AXIS":"6675.422"},{"RA_OF_ASC_NODE":"239.6571","REV_AT_EPOCH":"12979","INCLINATION":"53.0535","MEAN_MOTION_DOT":"0.00000741","ARG_OF_PERICENTER":"70.1309","EPOCH":"2022-03-19T20:36:08.357184","PERIAPSIS":"546.103","MEAN_ANOMALY":"289.9852","GP_ID":"199184570","OBJECT_ID":"2019-074AW","SEMIMAJOR_AXIS":"6925.345","LAUNCH_DATE":"2019-11-11","MEAN_MOTION":"15.06401315","APOAPSIS":"548.316","ELEMENT_SET_NO":"999","TLE_LINE2":"2 44757  53.0535 239.6571 0001598  70.1309 289.9852 15.06401315129793","MEAN_ELEMENT_THEORY":"SGP4","NORAD_CAT_ID":"44757","TLE_LINE1":"1 44757U 19074AW  22078.85843006  .00000741  00000-0  68662-4 0  9995","REF_FRAME":"TEME","ECCENTRICITY":"0.00015980","EPHEMERIS_TYPE":"0","SITE":"AFETR","TIME_SYSTEM":"UTC","CENTER_NAME":"EARTH","BSTAR":"0.00006866200000","OBJECT_TYPE":"PAYLOAD","FILE":"3366144","RCS_SIZE":"LARGE","OBJECT_NAME":"STARLINK-1052","CLASSIFICATION_TYPE":"U","COUNTRY_CODE":"US","DECAY_DATE":null,"MEAN_MOTION_DDOT":"0.0000000000000","PERIOD":"95.592"},{"OBJECT_TYPE":"PAYLOAD","FILE":"3366144","RCS_SIZE":"LARGE","PERIOD":"95.592","OBJECT_NAME":"STARLINK-1053","CLASSIFICATION_TYPE":"U","MEAN_MOTION_DDOT":"0.0000000000000","DECAY_DATE":null,"COUNTRY_CODE":"US","CENTER_NAME":"EARTH","TIME_SYSTEM":"UTC","BSTAR":"0.00001666800000","ECCENTRICITY":"0.00015000","REF_FRAME":"TEME","SITE":"AFETR","EPHEMERIS_TYPE":"0","TLE_LINE2":"2 44758  53.0545 259.6201 0001500  65.8619 294.2527 15.06399906129526","MEAN_ELEMENT_THEORY":"SGP4","LAUNCH_DATE":"2019-11-11","MEAN_MOTION":"15.06399906","ELEMENT_SET_NO":"999","APOAPSIS":"548.253","NORAD_CAT_ID":"44758","TLE_LINE1":"1 44758U 19074AX  22078.86669901 -.00000033  00000-0  16668-4 0  9991","GP_ID":"199183344","SEMIMAJOR_AXIS":"6925.349","OBJECT_ID":"2019-074AX","ARG_OF_PERICENTER":"65.8619","EPOCH":"2022-03-19T20:48:02.794464","PERIAPSIS":"546.175","MEAN_MOTION_DOT":"-0.00000033","MEAN_ANOMALY":"294.2527","RA_OF_ASC_NODE":"259.6201","INCLINATION":"53.0545","REV_AT_EPOCH":"12952"},{"SEMIMAJOR_AXIS":"6925.353","OBJECT_ID":"2019-074AY","GP_ID":"199183594","MEAN_ANOMALY":"293.8367","EPOCH":"2022-03-19T20:33:29.559168","PERIAPSIS":"546.226","ARG_OF_PERICENTER":"66.2773","MEAN_MOTION_DOT":"0.00002110","INCLINATION":"53.0527","REV_AT_EPOCH":"12716","RA_OF_ASC_NODE":"259.6707","PERIOD":"95.592","DECAY_DATE":null,"MEAN_MOTION_DDOT":"0.0000000000000","COUNTRY_CODE":"US","CLASSIFICATION_TYPE":"U","OBJECT_NAME":"STARLINK-1054","FILE":"3366144","OBJECT_TYPE":"PAYLOAD","RCS_SIZE":"LARGE","BSTAR":"0.00016050000000","CENTER_NAME":"EARTH","TIME_SYSTEM":"UTC","SITE":"AFETR","EPHEMERIS_TYPE":"0","ECCENTRICITY":"0.00014330","REF_FRAME":"TEME","TLE_LINE1":"1 44759U 19074AY  22078.85659212  .00002110  00000-0  16050-3 0  9996","NORAD_CAT_ID":"44759","TLE_LINE2":"2 44759  53.0527 259.6707 0001433  66.2773 293.8367 15.06398506127169","MEAN_ELEMENT_THEORY":"SGP4","APOAPSIS":"548.211","ELEMENT_SET_NO":"999","MEAN_MOTION":"15.06398506","LAUNCH_DATE":"2019-11-11"},{"MEAN_ANOMALY":"300.0656","MEAN_MOTION_DOT":"0.00000560","ARG_OF_PERICENTER":"60.0490","PERIAPSIS":"546.102","EPOCH":"2022-03-19T21:47:47.952960","REV_AT_EPOCH":"12953","INCLINATION":"53.0553","RA_OF_ASC_NODE":"259.4257","OBJECT_ID":"2019-074AZ","SEMIMAJOR_AXIS":"6925.333","GP_ID":"199183845","EPHEMERIS_TYPE":"0","SITE":"AFETR","REF_FRAME":"TEME","ECCENTRICITY":"0.00015820","NORAD_CAT_ID":"44760","TLE_LINE1":"1 44760U 19074AZ  22078.90819390  .00000560  00000-0  56463-4 0  9999","LAUNCH_DATE":"2019-11-11","MEAN_MOTION":"15.06405168","ELEMENT_SET_NO":"999","APOAPSIS":"548.293","TLE_LINE2":"2 44760  53.0553 259.4257 0001582  60.0490 300.0656 15.06405168129539","MEAN_ELEMENT_THEORY":"SGP4","CLASSIFICATION_TYPE":"U","OBJECT_NAME":"STARLINK-1055","DECAY_DATE":null,"MEAN_MOTION_DDOT":"0.0000000000000","COUNTRY_CODE":"US","PERIOD":"95.592","RCS_SIZE":"LARGE","FILE":"3366144","OBJECT_TYPE":"PAYLOAD","BSTAR":"0.00005646300000","TIME_SYSTEM":"UTC","CENTER_NAME":"EARTH"},{"OBJECT_ID":"2019-074BA","SEMIMAJOR_AXIS":"6925.335","GP_ID":"199184070","REV_AT_EPOCH":"12952","INCLINATION":"53.0535","RA_OF_ASC_NODE":"259.6770","MEAN_ANOMALY":"294.9414","MEAN_MOTION_DOT":"0.00006081","ARG_OF_PERICENTER":"65.1756","PERIAPSIS":"545.990","EPOCH":"2022-03-19T20:28:12.881568","BSTAR":"0.00042671000000","TIME_SYSTEM":"UTC","CENTER_NAME":"EARTH","OBJECT_NAME":"STARLINK-1056","CLASSIFICATION_TYPE":"U","DECAY_DATE":null,"MEAN_MOTION_DDOT":"0.0000000000000","COUNTRY_CODE":"US","PERIOD":"95.592","FILE":"3366144","RCS_SIZE":"LARGE","OBJECT_TYPE":"PAYLOAD","NORAD_CAT_ID":"44761","TLE_LINE1":"1 44761U 19074BA  22078.85292687  .00006081  00000-0  42671-3 0  9997","LAUNCH_DATE":"2019-11-11","MEAN_MOTION":"15.06404568","APOAPSIS":"548.409","ELEMENT_SET_NO":"999","MEAN_ELEMENT_THEORY":"SGP4","TLE_LINE2":"2 44761  53.0535 259.6770 0001747  65.1756 294.9414 15.06404568129521","EPHEMERIS_TYPE":"0","SITE":"AFETR","REF_FRAME":"TEME","ECCENTRICITY":"0.00017470"},{"EPHEMERIS_TYPE":"0","SITE":"AFETR","REF_FRAME":"TEME","ECCENTRICITY":"0.00015910","NORAD_CAT_ID":"44762","TLE_LINE1":"1 44762U 19074BB  22078.85473333  .00003365  00000-0  24466-3 0  9991","MEAN_MOTION":"15.06408813","LAUNCH_DATE":"2019-11-11","APOAPSIS":"548.288","ELEMENT_SET_NO":"999","TLE_LINE2":"2 44762  53.0548 239.6549 0001591  64.8084 295.3070 15.06408813129794","MEAN_ELEMENT_THEORY":"SGP4","CLASSIFICATION_TYPE":"U","OBJECT_NAME":"STARLINK-1057","COUNTRY_CODE":"US","DECAY_DATE":null,"MEAN_MOTION_DDOT":"0.0000000000000","PERIOD":"95.592","RCS_SIZE":"LARGE","FILE":"3366144","OBJECT_TYPE":"PAYLOAD","BSTAR":"0.00024466000000","TIME_SYSTEM":"UTC","CENTER_NAME":"EARTH","MEAN_ANOMALY":"295.3070","MEAN_MOTION_DOT":"0.00003365","ARG_OF_PERICENTER":"64.8084","EPOCH":"2022-03-19T20:30:48.959712","PERIAPSIS":"546.085","REV_AT_EPOCH":"12979","INCLINATION":"53.0548","RA_OF_ASC_NODE":"239.6549","OBJECT_ID":"2019-074BB","SEMIMAJOR_AXIS":"6925.322","GP_ID":"199182844"},{"SEMIMAJOR_AXIS":"6925.341","OBJECT_ID":"2019-074BC","GP_ID":"199183094","INCLINATION":"53.0539","REV_AT_EPOCH":"12952","RA_OF_ASC_NODE":"259.5912","MEAN_ANOMALY":"304.7040","EPOCH":"2022-03-19T21:00:01.389312","PERIAPSIS":"546.161","ARG_OF_PERICENTER":"55.4091","MEAN_MOTION_DOT":"-0.00000545","BSTAR":"-0.00001767600000","CENTER_NAME":"EARTH","TIME_SYSTEM":"UTC","PERIOD":"95.592","DECAY_DATE":null,"MEAN_MOTION_DDOT":"0.0000000000000","COUNTRY_CODE":"US","OBJECT_NAME":"STARLINK-1058","CLASSIFICATION_TYPE":"U","RCS_SIZE":"LARGE","FILE":"3366144","OBJECT_TYPE":"PAYLOAD","TLE_LINE1":"1 44763U 19074BC  22078.87501608 -.00000545  00000-0 -17676-4 0  9996","NORAD_CAT_ID":"44763","TLE_LINE2":"2 44763  53.0539 259.5912 0001510  55.4091 304.7040 15.06402316129520","MEAN_ELEMENT_THEORY":"SGP4","APOAPSIS":"548.252","ELEMENT_SET_NO":"999","MEAN_MOTION":"15.06402316","LAUNCH_DATE":"2019-11-11","SITE":"AFETR","EPHEMERIS_TYPE":"0","ECCENTRICITY":"0.00015100","REF_FRAME":"TEME"},{"SITE":"AFETR","EPHEMERIS_TYPE":"0","ECCENTRICITY":"0.00017250","REF_FRAME":"TEME","TLE_LINE1":"1 44764U 19074BD  22078.71835616 -.00000095  00000-0  12512-4 0  9992","NORAD_CAT_ID":"44764","MEAN_ELEMENT_THEORY":"SGP4","TLE_LINE2":"2 44764  53.0543 240.2864 0001725  63.7423 296.3743 15.06401582129775","ELEMENT_SET_NO":"999","APOAPSIS":"548.403","MEAN_MOTION":"15.06401582","LAUNCH_DATE":"2019-11-11","PERIOD":"95.592","COUNTRY_CODE":"US","DECAY_DATE":null,"MEAN_MOTION_DDOT":"0.0000000000000","OBJECT_NAME":"STARLINK-1059","CLASSIFICATION_TYPE":"U","RCS_SIZE":"LARGE","FILE":"3366144","OBJECT_TYPE":"PAYLOAD","BSTAR":"0.00001251200000","CENTER_NAME":"EARTH","TIME_SYSTEM":"UTC","MEAN_ANOMALY":"296.3743","EPOCH":"2022-03-19T17:14:25.972224","PERIAPSIS":"546.014","ARG_OF_PERICENTER":"63.7423","MEAN_MOTION_DOT":"-0.00000095","INCLINATION":"53.0543","REV_AT_EPOCH":"12977","RA_OF_ASC_NODE":"240.2864","SEMIMAJOR_AXIS":"6925.344","OBJECT_ID":"2019-074BD","GP_ID":"199184346"}];
